{"fetched_at":"2026-07-18T06:28:25.551Z","source":"https://celestrak.org/NORAD/elements/gp.php?NAME=RCM&FORMAT=JSON","constellation":"rcm","records":[{"OBJECT_NAME":"RCM-1","OBJECT_ID":"2019-033A","EPOCH":"2026-07-17T23:28:36.247584","CLASSIFICATION_TYPE":"U","MEAN_MOTION":14.92589437,"ECCENTRICITY":0.00015073,"INCLINATION":97.7604,"RA_OF_ASC_NODE":205.9903,"ARG_OF_PERICENTER":92.7608,"MEAN_ANOMALY":297.3669,"EPHEMERIS_TYPE":0,"NORAD_CAT_ID":44322,"ELEMENT_SET_NO":999,"REV_AT_EPOCH":38667,"BSTAR":0.000058004012,"MEAN_MOTION_DOT":0.00000541,"MEAN_MOTION_DDOT":0},{"OBJECT_NAME":"RCM-3","OBJECT_ID":"2019-033B","EPOCH":"2026-07-17T22:16:34.703616","CLASSIFICATION_TYPE":"U","MEAN_MOTION":14.92588365,"ECCENTRICITY":0.00015152,"INCLINATION":97.7604,"RA_OF_ASC_NODE":206.0354,"ARG_OF_PERICENTER":92.1754,"MEAN_ANOMALY":267.9638,"EPHEMERIS_TYPE":0,"NORAD_CAT_ID":44323,"ELEMENT_SET_NO":999,"REV_AT_EPOCH":38668,"BSTAR":-0.000018154035,"MEAN_MOTION_DOT":-0.00000242,"MEAN_MOTION_DDOT":0},{"OBJECT_NAME":"RCM-2","OBJECT_ID":"2019-033C","EPOCH":"2026-07-17T22:48:33.500736","CLASSIFICATION_TYPE":"U","MEAN_MOTION":14.92589184,"ECCENTRICITY":0.00015346,"INCLINATION":97.7605,"RA_OF_ASC_NODE":206.0076,"ARG_OF_PERICENTER":91.5835,"MEAN_ANOMALY":268.556,"EPHEMERIS_TYPE":0,"NORAD_CAT_ID":44324,"ELEMENT_SET_NO":999,"REV_AT_EPOCH":38667,"BSTAR":0.000038952419,"MEAN_MOTION_DOT":0.00000345,"MEAN_MOTION_DDOT":0}]}
