RCM-1                   
1 44322U 19033A   26198.97819731  .00000541  00000+0  58004-4 0  9992
2 44322  97.7604 205.9903 0001507  92.7608 297.3669 14.92589437386677
RCM-3                   
1 44323U 19033B   26198.92817944 -.00000242  00000+0 -18154-4 0  9994
2 44323  97.7604 206.0354 0001515  92.1754 267.9638 14.92588365386684
RCM-2                   
1 44324U 19033C   26198.95038774  .00000345  00000+0  38952-4 0  9994
2 44324  97.7605 206.0076 0001534  91.5835 268.5560 14.92589184386671
